[{"OBJECT_NAME":"HONGHU 2","OBJECT_ID":"2023-193C","EPOCH":"2026-03-09T23:21:07.139520","MEAN_MOTION":15.21543878,"ECCENTRICITY":0.00399876,"INCLINATION":97.2779,"RA_OF_ASC_NODE":62.3901,"ARG_OF_PERICENTER":264.1736,"MEAN_ANOMALY":95.4941,"EPHEMERIS_TYPE":0,"CLASSIFICATION_TYPE":"U","NORAD_CAT_ID":58555,"ELEMENT_SET_NO":999,"REV_AT_EPOCH":8691,"BSTAR":0.0061775359,"MEAN_MOTION_DOT":0.00144707,"MEAN_MOTION_DDOT":0},{"OBJECT_NAME":"STARLINK-34108","OBJECT_ID":"2025-223U","EPOCH":"2026-03-09T22:08:28.714848","MEAN_MOTION":15.30221142,"ECCENTRICITY":9.661e-5,"INCLINATION":53.1595,"RA_OF_ASC_NODE":292.9263,"ARG_OF_PERICENTER":152.1665,"MEAN_ANOMALY":207.9388,"EPHEMERIS_TYPE":0,"CLASSIFICATION_TYPE":"U","NORAD_CAT_ID":65872,"ELEMENT_SET_NO":999,"REV_AT_EPOCH":2424,"BSTAR":0.00098223845,"MEAN_MOTION_DOT":0.00028864,"MEAN_MOTION_DDOT":0}]
